$$SOE
2460721.500000000, A.D. 2025-Feb-15 00:00:00.0000, -3.354807349359722E+08, 2.814843170805256E+08, 1.057883146539277E+07,
2460728.500000000, A.D. 2025-Feb-22 00:00:00.0000, -3.411312610857529E+08, 2.746857360236883E+08, 1.038184463144985E+07,
2460735.500000000, A.D. 2025-Mar-01 00:00:00.0000, -3.465847720639085E+08, 2.677285611632907E+08, 1.017886177796745E+07,
2460742.500000000, A.D. 2025-Mar-08 00:00:00.0000, -3.518380749872785E+08, 2.606167762769588E+08, 9.969998644890577E+06,
2460749.500000000, A.D. 2025-Mar-15 00:00:00.0000, -3.568879864470956E+08, 2.533543810640823E+08, 9.755371480636090E+06,
2460756.500000000, A.D. 2025-Mar-22 00:00:00.0000, -3.617313318758250E+08, 2.459453955275788E+08, 9.535097402073339E+06,
2460763.500000000, A.D. 2025-Mar-29 00:00:00.0000, -3.663649436798676E+08, 2.383938622257088E+08, 9.309294450631782E+06,
2460770.500000000, A.D. 2025-Apr-05 00:00:00.0000, -3.707856578104997E+08, 2.307038495398985E+08, 9.078081571307003E+06,
2460777.500000000, A.D. 2025-Apr-12 00:00:00.0000, -3.749903106998889E+08, 2.228794560729880E+08, 8.841578699534237E+06,
2460784.500000000, A.D. 2025-Apr-19 00:00:00.0000, -3.789757367490398E+08, 2.149248153090814E+08, 8.599906900893614E+06,
2460791.500000000, A.D. 2025-Apr-26 00:00:00.0000, -3.827387660943430E+08, 2.068441003433093E+08, 8.353188522147030E+06,
2460798.500000000, A.D. 2025-May-03 00:00:00.0000, -3.862762225384084E+08, 1.986415287112464E+08, 8.101547344874680E+06,
2460805.500000000, A.D. 2025-May-10 00:00:00.0000, -3.895849216176418E+08, 1.903213673375963E+08, 7.845108739997953E+06,
2460812.500000000, A.D. 2025-May-17 00:00:00.0000, -3.926616687724246E+08, 1.818879375749025E+08, 7.583999816742077E+06,
2460819.500000000, A.D. 2025-May-24 00:00:00.0000, -3.955032574498906E+08, 1.733456202905323E+08, 7.318349545993768E+06,
2460826.500000000, A.D. 2025-May-31 00:00:00.0000, -3.981064667265953E+08, 1.646988613264210E+08, 7.048288845587999E+06,
2460833.500000000, A.D. 2025-Jun-07 00:00:00.0000, -4.004680588586242E+08, 1.559521785503820E+08, 6.773950763250172E+06,
2460840.500000000, A.D. 2025-Jun-14 00:00:00.0000, -4.025847791333457E+08, 1.471101698472598E+08, 6.495470920023687E+06,
2460847.500000000, A.D. 2025-Jun-21 00:00:00.0000, -4.044533568178223E+08, 1.381775187965896E+08, 6.212987835726641E+06,
2460854.500000000, A.D. 2025-Jun-28 00:00:00.0000, -4.060705040851029E+08, 1.291589998200853E+08, 5.926642994543895E+06,
2460861.500000000, A.D. 2025-Jul-05 00:00:00.0000, -4.074329144461180E+08, 1.200594849717338E+08, 5.636580966958687E+06,
2460868.500000000, A.D. 2025-Jul-12 00:00:00.0000, -4.085372618953171E+08, 1.108839515830708E+08, 5.342949632061593E+06,
2460875.500000000, A.D. 2025-Jul-19 00:00:00.0000, -4.093802006000375E+08, 1.016374902096278E+08, 5.045900436538570E+06,
2460882.500000000, A.D. 2025-Jul-26 00:00:00.0000, -4.099583649440817E+08, 9.232531284396589E+07, 4.745588667337243E+06,
2460889.500000000, A.D. 2025-Aug-02 00:00:00.0000, -4.102683698828444E+08, 8.295276143924955E+07, 4.442173734748818E+06,
2460896.500000000, A.D. 2025-Aug-09 00:00:00.0000, -4.103068116125314E+08, 7.352531675183304E+07, 4.135819463586792E+06,
2460903.500000000, A.D. 2025-Aug-16 00:00:00.0000, -4.100702685059972E+08, 6.404860746375371E+07, 3.826694381328501E+06,
2460910.500000000, A.D. 2025-Aug-23 00:00:00.0000, -4.095553020556734E+08, 5.452841962669139E+07, 3.514971978906251E+06,
2460917.500000000, A.D. 2025-Aug-30 00:00:00.0000, -4.087584575314894E+08, 4.497070716716029E+07, 3.200830973590715E+06,
2460924.500000000, A.D. 2025-Sep-06 00:00:00.0000, -4.076762658133777E+08, 3.538160447894733E+07, 2.884455787061980E+06,
2460931.500000000, A.D. 2025-Sep-13 00:00:00.0000, -4.063052481178029E+08, 2.576743864596940E+07, 2.566037190164775E+06,
2460938.500000000, A.D. 2025-Sep-20 00:00:00.0000, -4.046419204003459E+08, 1.613473967959967E+07, 2.245772680995556E+06,
2460945.500000000, A.D. 2025-Sep-27 00:00:00.0000, -4.026827964329460E+08, 6.490251911370412E+06, 1.923866755127103E+06,
2460952.500000000, A.D. 2025-Oct-04 00:00:00.0000, -4.004243916353699E+08, -3.159052893622410E+06, 1.600531298489804E+06,
2460959.500000000, A.D. 2025-Oct-11 00:00:00.0000, -3.978632281092408E+08, -1.280596162083972E+07, 1.275986061165371E+06,
2460966.500000000, A.D. 2025-Oct-18 00:00:00.0000, -3.949958406758111E+08, -2.244300533627287E+07, 9.504591646255888E+05,
2460973.500000000, A.D. 2025-Oct-25 00:00:00.0000, -3.918187838707614E+08, -3.206244422503454E+07, 6.241876315787248E+05,
2460980.500000000, A.D. 2025-Nov-01 00:00:00.0000, -3.883286399578352E+08, -4.165625189820081E+07, 2.974179371537231E+05,
2460987.500000000, A.D. 2025-Nov-08 00:00:00.0000, -3.845220280369334E+08, -5.121609907692935E+07, -2.959342319600284E+04,
2460994.500000000, A.D. 2025-Nov-15 00:00:00.0000, -3.803956142185519E+08, -6.073333669482645E+07, -3.565793662432954E+05,
2461001.500000000, A.D. 2025-Nov-22 00:00:00.0000, -3.759461225937867E+08, -7.019897818878555E+07, -6.832616718544103E+05,
2461008.500000000, A.D. 2025-Nov-29 00:00:00.0000, -3.711703473015163E+08, -7.960367984335862E+07, -1.009350344650999E+06,
2461015.500000000, A.D. 2025-Dec-06 00:00:00.0000, -3.660651681390597E+08, -8.893771933470182E+07, -1.334542688619722E+06,
2461022.500000000, A.D. 2025-Dec-13 00:00:00.0000, -3.606275694746898E+08, -9.819097586382635E+07, -1.658522410425633E+06,
2461029.500000000, A.D. 2025-Dec-20 00:00:00.0000, -3.548546591808254E+08, -1.073529108836103E+08, -1.980958988790087E+06,
2461036.500000000, A.D. 2025-Dec-27 00:00:00.0000, -3.487436888870143E+08, -1.164125468680781E+08, -2.301506999984585E+06,
2461043.500000000, A.D. 2026-Jan-03 00:00:00.0000, -3.422920772530497E+08, -1.253584448008890E+08, -2.619805316656612E+06,
2461050.500000000, A.D. 2026-Jan-10 00:00:00.0000, -3.354974364172903E+08, -1.341786811505709E+08, -2.935476247327000E+06,
2461057.500000000, A.D. 2026-Jan-17 00:00:00.0000, -3.283576016787271E+08, -1.428608245413871E+08, -3.248124648059130E+06,
2461064.500000000, A.D. 2026-Jan-24 00:00:00.0000, -3.208706646500556E+08, -1.513919122471598E+08, -3.557337015058793E+06,
2461071.500000000, A.D. 2026-Jan-31 00:00:00.0000, -3.130350101965412E+08, -1.597584267055964E+08, -3.862680565529473E+06,
2461078.500000000, A.D. 2026-Feb-07 00:00:00.0000, -3.048493574606788E+08, -1.679462723489366E+08, -4.163702323160060E+06,
2461085.500000000, A.D. 2026-Feb-14 00:00:00.0000, -2.963128051036711E+08, -1.759407530614351E+08, -4.459928240534447E+06,
2461092.500000000, A.D. 2026-Feb-21 00:00:00.0000, -2.874248807802066E+08, -1.837265500478708E+08, -4.750862356721930E+06,
2461099.500000000, A.D. 2026-Feb-28 00:00:00.0000, -2.781855963505415E+08, -1.912876993975827E+08, -5.035985808572948E+06,
2461106.500000000, A.D. 2026-Mar-07 00:00:00.0000, -2.685955113173692E+08, -1.986075718227416E+08, -5.314755681632861E+06,
2461113.500000000, A.D. 2026-Mar-14 00:00:00.0000, -2.586558021463905E+08, -2.056688575381388E+08, -5.586604164883360E+06,
2461120.500000000, A.D. 2026-Mar-21 00:00:00.0000, -2.483683361170161E+08, -2.124535541355587E+08, -5.850937958558872E+06,
2461127.500000000, A.D. 2026-Mar-28 00:00:00.0000, -2.377357521172669E+08, -2.189429573041364E+08, -6.107137693109408E+06,
2461134.500000000, A.D. 2026-Apr-04 00:00:00.0000, -2.267615493464274E+08, -2.251176563896549E+08, -6.354557414183185E+06,
2461141.500000000, A.D. 2026-Apr-11 00:00:00.0000, -2.154501839446338E+08, -2.309575363472723E+08, -6.592524225588948E+06,
2461148.500000000, A.D. 2026-Apr-18 00:00:00.0000, -2.038071735909168E+08, -2.364417874727263E+08, -6.820338149570063E+06,
2461155.500000000, A.D. 2026-Apr-25 00:00:00.0000, -1.918392100970832E+08, -2.415489244691944E+08, -7.037272258331895E+06,
2461162.500000000, A.D. 2026-May-02 00:00:00.0000, -1.795542798651714E+08, -2.462568166515817E+08, -7.242573140072539E+06,
2461169.500000000, A.D. 2026-May-09 00:00:00.0000, -1.669617917529712E+08, -2.505427313307751E+08, -7.435461782057583E+06,
2461176.500000000, A.D. 2026-May-16 00:00:00.0000, -1.540727113477045E+08, -2.543833924150966E+08, -7.615134967659742E+06,
2461183.500000000, A.D. 2026-May-23 00:00:00.0000, -1.408997006110282E+08, -2.577550555627493E+08, -7.780767189465895E+06,
2461190.500000000, A.D. 2026-May-30 00:00:00.0000, -1.274572635420699E+08, -2.606336020685163E+08, -7.931512948990449E+06,
2461197.500000000, A.D. 2026-Jun-06 00:00:00.0000, -1.137618962073946E+08, -2.629946573607395E+08, -8.066509774051517E+06,
2461204.500000000, A.D. 2026-Jun-13 00:00:00.0000, -9.983223488047306E+07, -2.648137365449213E+08, -8.184882369887754E+06,
2461211.500000000, A.D. 2026-Jun-20 00:00:00.0000, -8.568919949305998E+07, -2.660664166301733E+08, -8.285747715428665E+06,
2461218.500000000, A.D. 2026-Jun-27 00:00:00.0000, -7.135613001362951E+07, -2.667285381238044E+08, -8.368221069912404E+06,
2461225.500000000, A.D. 2026-Jul-04 00:00:00.0000, -5.685891082748133E+07, -2.667764387143019E+08, -8.431423037661180E+06,
2461232.500000000, A.D. 2026-Jul-11 00:00:00.0000, -4.222607706532151E+07, -2.661872204925183E+08, -8.474487793537080E+06,
2461239.500000000, A.D. 2026-Jul-18 00:00:00.0000, -2.748889612345868E+07, -2.649390511145822E+08, -8.496572519562244E+06,
2461246.500000000, A.D. 2026-Jul-25 00:00:00.0000, -1.268141690020628E+07, -2.630114981613638E+08, -8.496868064453110E+06,
2461253.500000000, A.D. 2026-Aug-01 00:00:00.0000, 2.159521366357771E+06, -2.603858945213802E+08, -8.474610797530696E+06,
2461260.500000000, A.D. 2026-Aug-08 00:00:00.0000, 1.699432928593139E+07, -2.570457308128130E+08, -8.429095583664089E+06,
2461267.500000000, A.D. 2026-Aug-15 00:00:00.0000, 3.178076532229024E+07, -2.529770682794140E+08, -8.359689714338660E+06,
2461274.500000000, A.D. 2026-Aug-22 00:00:00.0000, 4.647409871244498E+07, -2.481689625022968E+08, -8.265847380528852E+06,
2461281.500000000, A.D. 2026-Aug-29 00:00:00.0000, 6.102734175229800E+07, -2.426138884431230E+08, -8.147124263928175E+06,
$$EOE